XRISM                   
1 57800U 23137A   26076.82895636  .00004074  00000+0  22846-3 0  9993
2 57800  31.0008 231.0124 0007911 120.9592 239.1824 15.11590805139022
ACS3                    
1 59588U 24077B   26076.84928274  .00019616  00000+0  15619-1 0  9995
2 59588  97.2024  16.1276 0066949  57.3445 303.4155 13.89976735 95335
SZ-21 MODULE            
1 66515U 25246C   26076.58482274  .00029162  00000+0  24561-3 0  9993
2 66515  41.4741 154.7368 0000592 302.6268  57.4517 15.69175030 19313
